NORAD_CAT_ID,OBJECT_NAME,OBJECT_TYPE,EPOCH,MEAN_MOTION,ECCENTRICITY,INCLINATION,RA_OF_ASC_NODE,ARG_OF_PERICENTER,MEAN_ANOMALY,BSTAR,MEAN_MOTION_DOT,MEAN_MOTION_DDOT,TLE_LINE0,TLE_LINE1,TLE_LINE2,SEMIMAJOR_AXIS,PERIOD,APOGEE,PERIGEE,DECAYED
53598.0,STARLINK-4676,PAYLOAD,2022-10-03 22:00:00,15.35300647,0.0001294,53.2172,108.8635,101.9852,10.3588,-0.036319,-0.01151254,0.0,0 STARLINK-4676,1 53598U 22104L   22276.91667824 -.01151254  00000-0 -36319-1 0  9995,2 53598  53.2172 108.8635 0001294 101.9852  10.3588 15.35300647  1308,6838.165,93.793,460.914,459.145,0.0
53598.0,STARLINK-4676,PAYLOAD,2022-10-04 14:00:01,15.33673723,0.0001396999999999,53.2176,105.7483,101.4045,95.7357,-0.037239,-0.01123117,0.0,0 STARLINK-4676,1 53598U 22104L   22277.58334491 -.01123117  00000-0 -37239-1 0  9999,2 53598  53.2176 105.7483 0001397 101.4045  95.7357 15.33673723  1309,6843.0,93.892,465.821,463.909,0.0
53598.0,STARLINK-4676,PAYLOAD,2022-10-04 22:00:00,15.32869778,0.000135,53.2175,104.1965,94.3318,143.7524,-0.038138,-0.01121367,0.0,0 STARLINK-4676,1 53598U 22104L   22277.91667824 -.01121367  00000-0 -38138-1 0  9999,2 53598  53.2175 104.1965 0001350  94.3318 143.7524 15.32869778  1304,6845.392,93.941,468.181,466.333,0.0
53598.0,STARLINK-4676,PAYLOAD,2022-10-05 14:00:01,15.31274171,0.0001277,53.217,101.0938,101.3447,215.794,-0.040665,-0.01135621,0.0,0 STARLINK-4676,1 53598U 22104L   22278.58335648 -.01135621  00000-0 -40665-1 0  9995,2 53598  53.2170 101.0938 0001277 101.3447 215.7940 15.31274171  6038,6850.147,94.039,472.886,471.137,0.0
53598.0,STARLINK-4676,PAYLOAD,2022-10-05 22:00:00,15.30461574,0.0001144,53.2174,99.5474,93.0109,262.1177,-0.041171,-0.01122108,0.0,0 STARLINK-4676,1 53598U 22104L   22278.91667824 -.01122108  00000-0 -41171-1 0  9995,2 53598  53.2174  99.5474 0001144  93.0109 262.1177 15.30461574  1300,6852.571,94.089,475.22,473.652,0.0
53598.0,STARLINK-4676,PAYLOAD,2022-10-06 14:00:01,15.28868698,0.0001211999999999,53.217,96.4561,92.5,335.8292,-0.044022,-0.01140171,0.0,0 STARLINK-4676,1 53598U 22104L   22279.58334491 -.01140171  00000-0 -44022-1 0  9998,2 53598  53.2170  96.4561 0001212  92.5000 335.8292 15.28868698  1300,6857.33,94.187,480.026,478.364,0.0
53598.0,STARLINK-4676,PAYLOAD,2022-10-06 22:42:55,15.27983861,0.0001375,53.2172,94.778,112.9405,154.5178,-0.044565,-0.01124672,0.0,0 STARLINK-4676,1 53598U 22104L   22279.94646991 -.01124672  00000-0 -44565-1 0  9999,2 53598  53.2172  94.7780 0001375 112.9405 154.5178 15.27983861  1300,6859.977,94.242,482.785,480.899,0.0
53598.0,STARLINK-4676,PAYLOAD,2022-10-07 00:00:00,15.2785086,0.0001416,53.2171,94.53,109.9405,92.1883,-0.044529,-0.0111966,0.0,0 STARLINK-4676,1 53598U 22104L   22280.00001157 -.01119660  00000-0 -44529-1 0  9998,2 53598  53.2171  94.5300 0001416 109.9405  92.1883 15.27850860  6258,6860.375,94.25,483.212,481.269,0.0
53598.0,STARLINK-4676,PAYLOAD,2022-10-07 14:00:01,15.264468,0.0001463,53.2176,91.8351,111.5268,59.3812,-0.046554,-0.01121226,0.0,0 STARLINK-4676,1 53598U 22104L   22280.58334491 -.01121226  00000-0 -46554-1 0  9992,2 53598  53.2176  91.8351 0001463 111.5268  59.3812 15.26446800  1309,6864.581,94.337,487.451,485.442,0.0
53598.0,STARLINK-4676,PAYLOAD,2022-10-07 22:00:00,15.2564551,0.0001409999999999,53.2173,90.3006,103.6634,99.5034,-0.04775,-0.01122256,0.0,0 STARLINK-4676,1 53598U 22104L   22280.91667824 -.01122256  00000-0 -47750-1 0  9991,2 53598  53.2173  90.3006 0001410 103.6634  99.5034 15.25645510  6392,6866.985,94.386,489.818,487.882,0.0
53598.0,STARLINK-4676,PAYLOAD,2022-10-08 14:00:01,15.24044832,0.0001323,53.2171,87.2315,97.237,167.5566,-0.050485,-0.0114488,0.0,0 STARLINK-4676,1 53598U 22104L   22281.58334491 -.01144880  00000-0 -50485-1 0  9992,2 53598  53.2171  87.2315 0001323  97.2370 167.5566 15.24044832  1307,6871.792,94.485,494.566,492.74800000000016,0.0
53598.0,STARLINK-4676,PAYLOAD,2022-10-08 22:00:00,15.23192618,0.0001326,53.2172,85.7024,98.7295,195.4529,-0.048331,-0.0106059,0.0,0 STARLINK-4676,1 53598U 22104L   22281.91667824 -.01060590  00000-0 -48331-1 0  9990,2 53598  53.2172  85.7024 0001326  98.7295 195.4529 15.23192618  6548,6874.355,94.538,497.132,495.3080000000001,0.0
53598.0,STARLINK-4676,PAYLOAD,2022-10-09 14:00:01,15.21613079,0.0001198,53.2172,82.6446,85.9617,264.0482,-0.052568,-0.01111464,0.0,0 STARLINK-4676,1 53598U 22104L   22282.58334491 -.01111464  00000-0 -52568-1 0  9999,2 53598  53.2172  82.6446 0001198  85.9617 264.0482 15.21613079  1302,6879.111999999999,94.636,501.801,500.152,0.0
53598.0,STARLINK-4676,PAYLOAD,2022-10-09 22:00:00,15.20824768,0.0001155,53.2173,81.1206,77.6933,298.7813,-0.0548639999999999,-0.01131691,0.0,0 STARLINK-4676,1 53598U 22104L   22282.91667824 -.01131691  00000-0 -54864-1 0  9990,2 53598  53.2173  81.1206 0001155  77.6933 298.7813 15.20824768  1303,6881.489000000001,94.685,504.148,502.559,0.0
53598.0,STARLINK-4676,PAYLOAD,2022-10-10 06:00:00,15.20021682,0.0001143,53.2174,79.5954,80.833,321.1508,-0.056209,-0.01132354,0.0,0 STARLINK-4676,1 53598U 22104L   22283.25001157 -.01132354  00000-0 -56209-1 0  9991,2 53598  53.2174  79.5954 0001143  80.8330 321.1508 15.20021682  6759,6883.9119999999975,94.735,506.564,504.99,0.0
53598.0,STARLINK-4676,PAYLOAD,2022-10-10 14:00:01,15.19220969,0.0001242999999999,53.2174,78.0748,78.1228,348.4022,-0.057722,-0.0113568,0.0,0 STARLINK-4676,1 53598U 22104L   22283.58334491 -.01135680  00000-0 -57722-1 0  9993,2 53598  53.2174  78.0748 0001243  78.1228 348.4022 15.19220969  1307,6886.331,94.785,509.052,507.34,0.0
53598.0,STARLINK-4676,PAYLOAD,2022-10-10 22:00:01,15.18415457,0.0001250999999999,53.2172,76.5561,77.992,12.1744,-0.058811,-0.01130707,0.0,0 STARLINK-4676,1 53598U 22104L   22283.91668981 -.01130707  00000-0 -58811-1 0  9999,2 53598  53.2172  76.5561 0001251  77.9920  12.1744 15.18415457  1309,6888.766,94.836,511.49300000000005,509.769,0.0
53598.0,STARLINK-4676,PAYLOAD,2022-10-11 06:00:00,15.1761284,0.0001323,53.2174,75.0367,71.9216,40.7958,-0.060261,-0.01131878,0.0,0 STARLINK-4676,1 53598U 22104L   22284.25001157 -.01131878  00000-0 -60261-1 0  9995,2 53598  53.2174  75.0367 0001323  71.9216  40.7958 15.17612840  6900,6891.195,94.886,513.971,512.148,0.0
53598.0,STARLINK-4676,PAYLOAD,2022-10-11 14:00:01,15.16810955,0.0001382,53.2174,73.5217,79.1789,55.1857,-0.061765,-0.0113348999999999,0.0,0 STARLINK-4676,1 53598U 22104L   22284.58334491 -.01133490  00000-0 -61765-1 0  9993,2 53598  53.2174  73.5217 0001382  79.1789  55.1857 15.16810955  1300,6893.623000000001,94.936,516.441,514.535,0.0
53598.0,STARLINK-4676,PAYLOAD,2022-10-11 22:00:00,15.16034742,0.0001274999999999,53.2173,72.0091,74.9736,80.0611,-0.065395,-0.01170487,0.0,0 STARLINK-4676,1 53598U 22104L   22284.91667824 -.01170487  00000-0 -65395-1 0  9999,2 53598  53.2173  72.0091 0001275  74.9736  80.0611 15.16034742  1306,6895.976,94.985,518.72,516.962,0.0
53598.0,STARLINK-4676,PAYLOAD,2022-10-12 14:00:01,15.1440078,0.0001472,53.2174,68.9855,74.8758,118.645,-0.065998,-0.01130798,0.0,0 STARLINK-4676,1 53598U 22104L   22285.58334491 -.01130798  00000-0 -65998-1 0  9994,2 53598  53.2174  68.9855 0001472  74.8758 118.6450 15.14400780  1307,6900.935,95.087,523.816,521.785,0.0
53598.0,STARLINK-4676,PAYLOAD,2022-10-12 22:00:00,15.13598857,0.0001434,53.2171,67.4779,73.2256,138.0833,-0.0675809999999999,-0.01131825,0.0,0 STARLINK-4676,1 53598U 22104L   22285.91667824 -.01131825  00000-0 -67581-1 0  9992,2 53598  53.2171  67.4779 0001434  73.2256 138.0833 15.13598857  1300,6903.373000000001,95.137,526.2280000000002,524.248,0.0
53598.0,STARLINK-4676,PAYLOAD,2022-10-13 06:00:00,15.12795038,0.0001395,53.2173,65.9696,79.9727,148.1618,-0.069059,-0.01130738,0.0,0 STARLINK-4676,1 53598U 22104L   22286.25001157 -.01130738  00000-0 -69059-1 0  9995,2 53598  53.2173  65.9696 0001395  79.9727 148.1618 15.12795038  7202,6905.818,95.188,528.646,526.719,0.0
53598.0,STARLINK-4676,PAYLOAD,2022-10-13 14:00:01,15.1199139,0.0001459,53.2174,64.4662,71.5116,172.4817,-0.070535,-0.01129272,0.0,0 STARLINK-4676,1 53598U 22104L   22286.58334491 -.01129272  00000-0 -70535-1 0  9993,2 53598  53.2174  64.4662 0001459  71.5116 172.4817 15.11991390  1305,6908.265,95.239,531.138,529.122,0.0
53598.0,STARLINK-4676,PAYLOAD,2022-10-13 22:00:00,15.11191283,0.0001355,53.2171,62.9639,79.2461,179.6403,-0.072435,-0.01133657,0.0,0 STARLINK-4676,1 53598U 22104L   22286.91667824 -.01133657  00000-0 -72435-1 0  9992,2 53598  53.2171  62.9639 0001355  79.2461 179.6403 15.11191283  1305,6910.703,95.289,533.504,531.631,0.0
53598.0,STARLINK-4676,PAYLOAD,2022-10-14 06:00:00,15.10387487,0.0001357,53.2173,61.4613,75.5924,197.2255,-0.074085,-0.01133815,0.0,0 STARLINK-4676,1 53598U 22104L   22287.25001157 -.01133815  00000-0 -74085-1 0  9990,2 53598  53.2173  61.4613 0001357  75.5924 197.2255 15.10387487  7352,6913.154,95.34,535.957,534.081,0.0
53598.0,STARLINK-4676,PAYLOAD,2022-10-14 14:00:01,15.09451014,0.0001481,53.2175,59.9637,75.5441,210.2581,-0.044892,-0.00679052,0.0,0 STARLINK-4676,1 53598U 22104L   22287.58334491 -.00679052  00000-0 -44892-1 0  9996,2 53598  53.2175  59.9637 0001481  75.5441 210.2581 15.09451014  1307,6916.013000000001,95.399,538.903,536.854,0.0
53598.0,STARLINK-4676,PAYLOAD,2022-10-14 16:00:00,15.09262969,0.0001488,53.2174,59.5895,73.4199,305.4651,-0.034997,-0.00529633,0.0,0 STARLINK-4676,1 53598U 22104L   22287.66667824 -.00529633  00000-0 -34997-1 0  9998,2 53598  53.2174  59.5895 0001488  73.4199 305.4651 15.09262969  7425,6916.5880000000025,95.411,539.482,537.424,0.0
53598.0,STARLINK-4676,PAYLOAD,2022-10-14 20:00:01,15.08957358,0.0001460999999999,53.2174,58.8412,68.8608,136.0408,-0.011847,-0.00184631,0.0,0 STARLINK-4676,1 53598U 22104L   22287.83334491 -.00184631  00000-0 -11847-1 0  9992,2 53598  53.2174  58.8412 0001461  68.8608 136.0408 15.08957358  1307,6917.522,95.43,540.3969999999998,538.376,0.0
